CS1                     
1 49261U 21088B   26068.75173904  .00015722  00000+0  51176-3 0  9998
2 49261  97.3882 132.1684 0014129  78.0335 282.2490 15.31848439245182
STARLINK-33704          
1 63650U 25083S   26068.20762072  .00027048  00000+0  98866-3 0  9996
2 63650  43.0052   7.8870 0001803 263.5684  96.4962 15.27585573 49997
