[{"OBJECT_NAME":"CS1","OBJECT_ID":"2021-088B","EPOCH":"2026-03-09T18:02:30.253920","MEAN_MOTION":15.31848439,"ECCENTRICITY":0.00141292,"INCLINATION":97.3882,"RA_OF_ASC_NODE":132.1684,"ARG_OF_PERICENTER":78.0335,"MEAN_ANOMALY":282.249,"EPHEMERIS_TYPE":0,"CLASSIFICATION_TYPE":"U","NORAD_CAT_ID":49261,"ELEMENT_SET_NO":999,"REV_AT_EPOCH":24518,"BSTAR":0.00051175576,"MEAN_MOTION_DOT":0.00015722,"MEAN_MOTION_DDOT":0},{"OBJECT_NAME":"STARLINK-33704","OBJECT_ID":"2025-083S","EPOCH":"2026-03-09T04:58:58.430208","MEAN_MOTION":15.27585573,"ECCENTRICITY":0.00018039,"INCLINATION":43.0052,"RA_OF_ASC_NODE":7.887,"ARG_OF_PERICENTER":263.5684,"MEAN_ANOMALY":96.4962,"EPHEMERIS_TYPE":0,"CLASSIFICATION_TYPE":"U","NORAD_CAT_ID":63650,"ELEMENT_SET_NO":999,"REV_AT_EPOCH":4999,"BSTAR":0.00098865857,"MEAN_MOTION_DOT":0.00027048,"MEAN_MOTION_DDOT":0}]
